start=new Date('2022-07-21T00:00:00.000Z').valueOf();
sats=[{"NORAD_CAT_ID":"46689","EPHEMERIS_TYPE":"0","FILE":"3518363","ELEMENT_SET_NO":"999","MEAN_ANOMALY":"293.7024","MEAN_ELEMENT_THEORY":"SGP4","RA_OF_ASC_NODE":"97.3760","OBJECT_NAME":"STARLINK-1788","APOAPSIS":"548.395","CENTER_NAME":"EARTH","TLE_LINE2":"2 46689  53.0529  97.3760 0001693  66.4143 293.7024 15.06397013 98036","GP_ID":"208533778","REF_FRAME":"TEME","TIME_SYSTEM":"UTC","MEAN_MOTION_DDOT":"0.0000000000000","DECAY_DATE":null,"MEAN_MOTION":"15.06397013","RCS_SIZE":"LARGE","ARG_OF_PERICENTER":"66.4143","BSTAR":"-0.00003239800000","OBJECT_TYPE":"PAYLOAD","PERIAPSIS":"546.050","MEAN_MOTION_DOT":"-0.00000764","SEMIMAJOR_AXIS":"6925.358","LAUNCH_DATE":"2020-10-18","COUNTRY_CODE":"US","INCLINATION":"53.0529","SITE":"AFETR","CLASSIFICATION_TYPE":"U","TLE_LINE1":"1 46689U 20073V   22201.88309372 -.00000764  00000-0 -32398-4 0  9990","REV_AT_EPOCH":"9803","PERIOD":"95.592","ECCENTRICITY":"0.00016930","EPOCH":"2022-07-20T21:11:39.297408","OBJECT_ID":"2020-073V"},{"RCS_SIZE":"LARGE","OBJECT_TYPE":"PAYLOAD","BSTAR":"0.00019547000000","PERIAPSIS":"546.125","MEAN_MOTION_DOT":"0.00002632","ARG_OF_PERICENTER":"98.6625","LAUNCH_DATE":"2020-10-18","SEMIMAJOR_AXIS":"6925.332","INCLINATION":"53.0553","COUNTRY_CODE":"US","REV_AT_EPOCH":"9712","TLE_LINE1":"1 46690U 20073W   22201.81720147  .00002632  00000-0  19547-3 0  9996","SITE":"AFETR","CLASSIFICATION_TYPE":"U","EPOCH":"2022-07-20T19:36:46.207008","OBJECT_ID":"2020-073W","ECCENTRICITY":"0.00015480","PERIOD":"95.592","EPHEMERIS_TYPE":"0","NORAD_CAT_ID":"46690","MEAN_ELEMENT_THEORY":"SGP4","ELEMENT_SET_NO":"999","MEAN_ANOMALY":"261.4540","FILE":"3518363","OBJECT_NAME":"STARLINK-1789","RA_OF_ASC_NODE":"72.6722","APOAPSIS":"548.269","GP_ID":"208534029","TLE_LINE2":"2 46690  53.0553  72.6722 0001548  98.6625 261.4540 15.06405330 97126","CENTER_NAME":"EARTH","DECAY_DATE":null,"MEAN_MOTION":"15.06405330","MEAN_MOTION_DDOT":"0.0000000000000","TIME_SYSTEM":"UTC","REF_FRAME":"TEME"},{"DECAY_DATE":null,"MEAN_MOTION":"15.06415819","REF_FRAME":"TEME","TIME_SYSTEM":"UTC","MEAN_MOTION_DDOT":"0.0000000000000","GP_ID":"208534780","CENTER_NAME":"EARTH","TLE_LINE2":"2 46691  53.0536  82.3797 0001502  72.1897 287.9256 15.06415819 96990","OBJECT_NAME":"STARLINK-1790","RA_OF_ASC_NODE":"82.3797","APOAPSIS":"548.205","EPHEMERIS_TYPE":"0","NORAD_CAT_ID":"46691","MEAN_ANOMALY":"287.9256","ELEMENT_SET_NO":"999","MEAN_ELEMENT_THEORY":"SGP4","FILE":"3518363","REV_AT_EPOCH":"9699","SITE":"AFETR","CLASSIFICATION_TYPE":"U","TLE_LINE1":"1 46691U 20073X   22201.88263687  .00004273  00000-0  30544-3 0  9998","OBJECT_ID":"2020-073X","EPOCH":"2022-07-20T21:10:59.825568","ECCENTRICITY":"0.00015020","PERIOD":"95.591","INCLINATION":"53.0536","COUNTRY_CODE":"US","SEMIMAJOR_AXIS":"6925.300","LAUNCH_DATE":"2020-10-18","RCS_SIZE":"LARGE","PERIAPSIS":"546.125","OBJECT_TYPE":"PAYLOAD","BSTAR":"0.00030544000000","MEAN_MOTION_DOT":"0.00004273","ARG_OF_PERICENTER":"72.1897"},{"MEAN_MOTION_DDOT":"0.0000000000000","TIME_SYSTEM":"UTC","REF_FRAME":"TEME","DECAY_DATE":null,"MEAN_MOTION":"15.06397146","TLE_LINE2":"2 46692  53.0554  97.4314 0001621  74.8128 285.3040 15.06397146 96783","CENTER_NAME":"EARTH","GP_ID":"208533528","APOAPSIS":"548.345","RA_OF_ASC_NODE":"97.4314","OBJECT_NAME":"STARLINK-1791","FILE":"3518363","MEAN_ELEMENT_THEORY":"SGP4","MEAN_ANOMALY":"285.3040","ELEMENT_SET_NO":"999","NORAD_CAT_ID":"46692","EPHEMERIS_TYPE":"0","ECCENTRICITY":"0.00016210","PERIOD":"95.592","EPOCH":"2022-07-20T20:50:25.626624","OBJECT_ID":"2020-073Y","TLE_LINE1":"1 46692U 20073Y   22201.86835216  .00000788  00000-0  71804-4 0  9992","CLASSIFICATION_TYPE":"U","SITE":"AFETR","REV_AT_EPOCH":"9678","COUNTRY_CODE":"US","INCLINATION":"53.0554","LAUNCH_DATE":"2020-10-18","SEMIMAJOR_AXIS":"6925.357","ARG_OF_PERICENTER":"74.8128","OBJECT_TYPE":"PAYLOAD","BSTAR":"0.00007180400000","PERIAPSIS":"546.100","MEAN_MOTION_DOT":"0.00000788","RCS_SIZE":"LARGE"},{"MEAN_MOTION_DDOT":"0.0000000000000","TIME_SYSTEM":"UTC","REF_FRAME":"TEME","MEAN_MOTION":"15.06397567","DECAY_DATE":null,"TLE_LINE2":"2 46693  53.0551  82.6696 0001322  82.2679 277.8460 15.06397567 97456","CENTER_NAME":"EARTH","GP_ID":"208511517","RA_OF_ASC_NODE":"82.6696","OBJECT_NAME":"STARLINK-1792","APOAPSIS":"548.137","NORAD_CAT_ID":"46693","EPHEMERIS_TYPE":"0","FILE":"3518309","MEAN_ELEMENT_THEORY":"SGP4","MEAN_ANOMALY":"277.8460","ELEMENT_SET_NO":"999","TLE_LINE1":"1 46693U 20073Z   22201.81997510  .00002924  00000-0  21511-3 0  9997","SITE":"AFETR","CLASSIFICATION_TYPE":"U","REV_AT_EPOCH":"9745","PERIOD":"95.592","ECCENTRICITY":"0.00013220","EPOCH":"2022-07-20T19:40:45.848640","OBJECT_ID":"2020-073Z","COUNTRY_CODE":"US","INCLINATION":"53.0551","LAUNCH_DATE":"2020-10-18","SEMIMAJOR_AXIS":"6925.356","RCS_SIZE":"LARGE","ARG_OF_PERICENTER":"82.2679","OBJECT_TYPE":"PAYLOAD","BSTAR":"0.00021511000000","PERIAPSIS":"546.305","MEAN_MOTION_DOT":"0.00002924"},{"SEMIMAJOR_AXIS":"6925.352","LAUNCH_DATE":"2020-10-18","RCS_SIZE":"LARGE","PERIAPSIS":"546.176","OBJECT_TYPE":"PAYLOAD","MEAN_MOTION_DOT":"0.00001968","BSTAR":"0.00015095000000","ARG_OF_PERICENTER":"110.0805","REV_AT_EPOCH":"9775","CLASSIFICATION_TYPE":"U","SITE":"AFETR","TLE_LINE1":"1 46694U 20073AA  22201.84392622  .00001968  00000-0  15095-3 0  9991","EPOCH":"2022-07-20T20:15:15.225408","OBJECT_ID":"2020-073AA","ECCENTRICITY":"0.00015030","PERIOD":"95.592","INCLINATION":"53.0562","COUNTRY_CODE":"US","OBJECT_NAME":"STARLINK-1793","RA_OF_ASC_NODE":"62.5659","APOAPSIS":"548.258","EPHEMERIS_TYPE":"0","NORAD_CAT_ID":"46694","MEAN_ANOMALY":"250.0345","ELEMENT_SET_NO":"999","MEAN_ELEMENT_THEORY":"SGP4","FILE":"3518256","MEAN_MOTION":"15.06398955","DECAY_DATE":null,"TIME_SYSTEM":"UTC","REF_FRAME":"TEME","MEAN_MOTION_DDOT":"0.0000000000000","GP_ID":"208510542","CENTER_NAME":"EARTH","TLE_LINE2":"2 46694  53.0562  62.5659 0001503 110.0805 250.0345 15.06398955 97757"},{"GP_ID":"208534280","TLE_LINE2":"2 46696  53.0563  62.4784 0001303  72.2749 287.8382 15.06394401 97270","CENTER_NAME":"EARTH","DECAY_DATE":null,"MEAN_MOTION":"15.06394401","TIME_SYSTEM":"UTC","REF_FRAME":"TEME","MEAN_MOTION_DDOT":"0.0000000000000","EPHEMERIS_TYPE":"0","NORAD_CAT_ID":"46696","ELEMENT_SET_NO":"999","MEAN_ANOMALY":"287.8382","MEAN_ELEMENT_THEORY":"SGP4","FILE":"3518363","OBJECT_NAME":"STARLINK-1795","RA_OF_ASC_NODE":"62.4784","APOAPSIS":"548.133","INCLINATION":"53.0563","COUNTRY_CODE":"US","REV_AT_EPOCH":"9727","SITE":"AFETR","CLASSIFICATION_TYPE":"U","TLE_LINE1":"1 46696U 20073AC  22201.86236023  .00000357  00000-0  42875-4 0  9995","EPOCH":"2022-07-20T20:41:47.923872","OBJECT_ID":"2020-073AC","ECCENTRICITY":"0.00013030","PERIOD":"95.592","RCS_SIZE":"LARGE","OBJECT_TYPE":"PAYLOAD","PERIAPSIS":"546.328","BSTAR":"0.00004287500000","MEAN_MOTION_DOT":"0.00000357","ARG_OF_PERICENTER":"72.2749","SEMIMAJOR_AXIS":"6925.366","LAUNCH_DATE":"2020-10-18"},{"INCLINATION":"53.0541","COUNTRY_CODE":"US","REV_AT_EPOCH":"9745","SITE":"AFETR","CLASSIFICATION_TYPE":"U","TLE_LINE1":"1 46698U 20073AE  22201.85219675  .00001613  00000-0  12714-3 0  9994","EPOCH":"2022-07-20T20:27:09.799200","OBJECT_ID":"2020-073AE","ECCENTRICITY":"0.00014540","PERIOD":"95.592","RCS_SIZE":"LARGE","OBJECT_TYPE":"PAYLOAD","PERIAPSIS":"546.197","BSTAR":"0.00012714000000","MEAN_MOTION_DOT":"0.00001613","ARG_OF_PERICENTER":"86.4142","SEMIMAJOR_AXIS":"6925.339","LAUNCH_DATE":"2020-10-18","GP_ID":"208510456","CENTER_NAME":"EARTH","TLE_LINE2":"2 46698  53.0541  82.4992 0001454  86.4142 273.7013 15.06403198 97451","DECAY_DATE":null,"MEAN_MOTION":"15.06403198","REF_FRAME":"TEME","TIME_SYSTEM":"UTC","MEAN_MOTION_DDOT":"0.0000000000000","EPHEMERIS_TYPE":"0","NORAD_CAT_ID":"46698","ELEMENT_SET_NO":"999","MEAN_ANOMALY":"273.7013","MEAN_ELEMENT_THEORY":"SGP4","FILE":"3518251","OBJECT_NAME":"STARLINK-1797","RA_OF_ASC_NODE":"82.4992","APOAPSIS":"548.211"},{"OBJECT_NAME":"STARLINK-1799","RA_OF_ASC_NODE":"82.4976","APOAPSIS":"548.346","EPHEMERIS_TYPE":"0","NORAD_CAT_ID":"46699","MEAN_ELEMENT_THEORY":"SGP4","ELEMENT_SET_NO":"999","MEAN_ANOMALY":"287.6506","FILE":"3518363","MEAN_MOTION":"15.06401866","DECAY_DATE":null,"MEAN_MOTION_DDOT":"0.0000000000000","TIME_SYSTEM":"UTC","REF_FRAME":"TEME","GP_ID":"208533779","TLE_LINE2":"2 46699  53.0533  82.4976 0001644  72.4662 287.6506 15.06401866 96997","CENTER_NAME":"EARTH","LAUNCH_DATE":"2020-10-18","SEMIMAJOR_AXIS":"6925.343","RCS_SIZE":"LARGE","PERIAPSIS":"546.069","OBJECT_TYPE":"PAYLOAD","BSTAR":"0.00006581800000","MEAN_MOTION_DOT":"0.00000699","ARG_OF_PERICENTER":"72.4662","REV_AT_EPOCH":"9699","TLE_LINE1":"1 46699U 20073AF  22201.85682636  .00000699  00000-0  65818-4 0  9993","CLASSIFICATION_TYPE":"U","SITE":"AFETR","EPOCH":"2022-07-20T20:33:49.797504","OBJECT_ID":"2020-073AF","ECCENTRICITY":"0.00016440","PERIOD":"95.592","INCLINATION":"53.0533","COUNTRY_CODE":"US"},{"OBJECT_ID":"2020-073AG","EPOCH":"2022-07-18T11:20:23.036640","PERIOD":"95.591","ECCENTRICITY":"0.00015820","REV_AT_EPOCH":"9689","TLE_LINE1":"1 46700U 20073AG  22199.47248885  .00003949  00000-0  28372-3 0  9998","SITE":"AFETR","CLASSIFICATION_TYPE":"U","INCLINATION":"53.0552","COUNTRY_CODE":"US","LAUNCH_DATE":"2020-10-18","SEMIMAJOR_AXIS":"6925.306","MEAN_MOTION_DOT":"0.00003949","OBJECT_TYPE":"PAYLOAD","PERIAPSIS":"546.075","BSTAR":"0.00028372000000","ARG_OF_PERICENTER":"68.6752","RCS_SIZE":"LARGE","MEAN_MOTION":"15.06414011","DECAY_DATE":null,"MEAN_MOTION_DDOT":"0.0000000000000","TIME_SYSTEM":"UTC","REF_FRAME":"TEME","GP_ID":"208351408","CENTER_NAME":"EARTH","TLE_LINE2":"2 46700  53.0552 108.2000 0001582  68.6752 291.4406 15.06414011 96891","APOAPSIS":"548.266","OBJECT_NAME":"STARLINK-1800","RA_OF_ASC_NODE":"108.2000","MEAN_ELEMENT_THEORY":"SGP4","ELEMENT_SET_NO":"999","MEAN_ANOMALY":"291.4406","FILE":"3516806","EPHEMERIS_TYPE":"0","NORAD_CAT_ID":"46700"}];
